[{"OBJECT_NAME":"STARLINK-4019","OBJECT_ID":"2022-052A","EPOCH":"2026-03-09T21:25:30.172512","MEAN_MOTION":15.08834523,"ECCENTRICITY":0.00012165,"INCLINATION":53.217,"RA_OF_ASC_NODE":283.208,"ARG_OF_PERICENTER":93.225,"MEAN_ANOMALY":266.8881,"EPHEMERIS_TYPE":0,"CLASSIFICATION_TYPE":"U","NORAD_CAT_ID":52598,"ELEMENT_SET_NO":999,"REV_AT_EPOCH":21161,"BSTAR":1.373332e-5,"MEAN_MOTION_DOT":-6.9e-7,"MEAN_MOTION_DDOT":0},{"OBJECT_NAME":"OBJECT G","OBJECT_ID":"2025-292G","EPOCH":"2026-03-09T22:41:34.708704","MEAN_MOTION":15.05879657,"ECCENTRICITY":0.00150455,"INCLINATION":97.6425,"RA_OF_ASC_NODE":145.7524,"ARG_OF_PERICENTER":352.95,"MEAN_ANOMALY":7.1513,"EPHEMERIS_TYPE":0,"CLASSIFICATION_TYPE":"U","NORAD_CAT_ID":66999,"ELEMENT_SET_NO":999,"REV_AT_EPOCH":1351,"BSTAR":0.00047153864,"MEAN_MOTION_DOT":6.807e-5,"MEAN_MOTION_DDOT":0}]
